NORAD_CAT_ID,OBJECT_NAME,OBJECT_TYPE,EPOCH,MEAN_MOTION,ECCENTRICITY,INCLINATION,RA_OF_ASC_NODE,ARG_OF_PERICENTER,MEAN_ANOMALY,BSTAR,MEAN_MOTION_DOT,MEAN_MOTION_DDOT,TLE_LINE0,TLE_LINE1,TLE_LINE2,SEMIMAJOR_AXIS,PERIOD,APOGEE,PERIGEE,DECAYED
52877.0,STARLINK-4214,PAYLOAD,2024-07-30 01:03:45,15.08833745,0.0001066,53.2162,132.1744,89.6547,270.4568,3.0904e-05,2.04e-06,0.0,0 STARLINK-4214,1 52877U 22062AZ  24212.04427746  .00000204  00000-0  30904-4 0  9992,2 52877  53.2162 132.1744 0001066  89.6547 270.4568 15.08833745117841,6917.9,95.438,540.502,539.027,0.0
52877.0,STARLINK-4214,PAYLOAD,2024-07-30 12:11:27,15.08839194,0.0001266,53.2184,130.0898,96.9171,263.1966,6.6033e-05,7.63e-06,0.0,0 STARLINK-4214,1 52877U 22062AZ  24212.50795329  .00000763  00000-0  66033-4 0  9990,2 52877  53.2184 130.0898 0001266  96.9171 263.1966 15.08839194117427,6917.883,95.438,540.624,538.872,0.0
52877.0,STARLINK-4214,PAYLOAD,2024-07-30 21:43:45,15.08843887,0.0001134,53.2163,128.3092,87.8798,272.2324,7.9319e-05,9.75e-06,0.0,0 STARLINK-4214,1 52877U 22062AZ  24212.90538970  .00000975  00000-0  79319-4 0  9997,2 52877  53.2163 128.3092 0001134  87.8798 272.2324 15.08843887117971,6917.869,95.437,540.518,538.949,0.0
52877.0,STARLINK-4214,PAYLOAD,2024-07-30 23:19:08,15.08848015,0.0001281,53.2177,128.0116,88.9355,271.1784,8.8696e-05,1.124e-05,0.0,0 STARLINK-4214,1 52877U 22062AZ  24212.97162706  .00001124  00000-0  88696-4 0  9999,2 52877  53.2177 128.0116 0001281  88.9355 271.1784 15.08848015117497,6917.856,95.437,540.607,538.835,0.0
52877.0,STARLINK-4214,PAYLOAD,2024-07-31 00:54:31,15.08856819,0.000134,53.2168,127.7134,92.4391,267.6755,4.479e-05,4.25e-06,0.0,0 STARLINK-4214,1 52877U 22062AZ  24213.03786290  .00000425  00000-0  44790-4 0  9997,2 52877  53.2168 127.7134 0001340  92.4391 267.6755 15.08856819117500,6917.829,95.436,540.621,538.767,0.0
52877.0,STARLINK-4214,PAYLOAD,2024-07-31 21:34:33,15.08835074,0.0001905,53.2165,123.8477,125.1575,234.9595,1.9947e-05,2.9e-07,0.0,0 STARLINK-4214,1 52877U 22062AZ  24213.89899523  .00000029  00000-0  19947-4 0  9991,2 52877  53.2165 123.8477 0001905 125.1575 234.9595 15.08835074118127,6917.895,95.438,541.078,538.443,0.0
52877.0,STARLINK-4214,PAYLOAD,2024-07-31 23:09:56,15.08835515,0.0001368,53.2166,123.5511,103.3259,256.7886,2.7236e-05,1.46e-06,0.0,0 STARLINK-4214,1 52877U 22062AZ  24213.96523633  .00000146  00000-0  27236-4 0  9995,2 52877  53.2166 123.5511 0001368 103.3259 256.7886 15.08835515117645,6917.894,95.438,540.705,538.813,0.0
52877.0,STARLINK-4214,PAYLOAD,2024-08-01 00:45:19,15.08839722,0.00014,53.2174,123.2545,100.7301,259.3849,1.053e-05,-1.2e-06,0.0,0 STARLINK-4214,1 52877U 22062AZ  24214.03147479 -.00000120  00000-0  10530-4 0  9996,2 52877  53.2174 123.2545 0001400 100.7301 259.3849 15.08839722117657,6917.881,95.438,540.715,538.778,0.0
52877.0,STARLINK-4214,PAYLOAD,2024-08-01 21:25:19,15.08848661,0.0001518,53.2169,119.3858,104.6271,255.489,2.185e-05,6e-07,0.0,0 STARLINK-4214,1 52877U 22062AZ  24214.89258732  .00000060  00000-0  21850-4 0  9994,2 52877  53.2169 119.3858 0001518 104.6271 255.4890 15.08848661118277,6917.854,95.437,540.769,538.669,0.0
52877.0,STARLINK-4214,PAYLOAD,2024-08-01 23:00:42,15.08851657,0.0001544,53.2174,119.0895,103.7006,256.4158,5.5754e-05,6e-06,0.0,0 STARLINK-4214,1 52877U 22062AZ  24214.95882424  .00000600  00000-0  55754-4 0  9992,2 52877  53.2174 119.0895 0001544 103.7006 256.4158 15.08851657117799,6917.845,95.437,540.778,538.642,0.0
52877.0,STARLINK-4214,PAYLOAD,2024-08-02 10:08:24,15.08849343,0.0001248,53.2165,117.0102,75.7944,284.3186,6.2913e-05,7.14e-06,0.0,0 STARLINK-4214,1 52877U 22062AZ  24215.42250360  .00000714  00000-0  62913-4 0  9994,2 52877  53.2165 117.0102 0001248  75.7944 284.3186 15.08849343117866,6917.852,95.437,540.58,538.853,0.0
52877.0,STARLINK-4214,PAYLOAD,2024-08-02 21:16:08,15.08807998,0.0001399,53.2181,114.9293,99.5928,260.5222,8.4036e-05,1.049e-05,0.0,0 STARLINK-4214,1 52877U 22062AZ  24215.88621207  .00001049  00000-0  84036-4 0  9998,2 52877  53.2181 114.9293 0001399  99.5928 260.5222 15.08807998118424,6917.978,95.44,540.811,538.875,0.0
52877.0,STARLINK-4214,PAYLOAD,2024-08-02 22:51:31,15.08810542,0.0001505,53.2175,114.6314,98.9092,261.2071,6.4142e-05,7.32e-06,0.0,0 STARLINK-4214,1 52877U 22062AZ  24215.95245273  .00000732  00000-0  64142-4 0  9995,2 52877  53.2175 114.6314 0001505  98.9092 261.2071 15.08810542117947,6917.97,95.439,540.877,538.794,0.0
52877.0,STARLINK-4214,PAYLOAD,2024-08-03 00:26:54,15.08827875,0.0001276,53.2175,114.3328,90.3935,269.7203,-3.7894e-05,-8.91e-06,0.0,0 STARLINK-4214,1 52877U 22062AZ  24216.01868650 -.00000891  00000-0 -37894-4 0  9995,2 52877  53.2175 114.3328 0001276  90.3935 269.7203 15.08827875118449,6917.917,95.438,540.665,538.9,0.0
52877.0,STARLINK-4214,PAYLOAD,2024-08-03 09:59:13,15.08833388,0.0001432,53.2185,112.5511,96.4744,263.6411,-3.7042e-06,-3.47e-06,0.0,0 STARLINK-4214,1 52877U 22062AZ  24216.41612455 -.00000347  00000-0 -37042-5 0  9991,2 52877  53.2185 112.5511 0001432  96.4744 263.6411 15.08833388118500,6917.901,95.438,540.756,538.775,0.0
52877.0,STARLINK-4214,PAYLOAD,2024-08-03 21:06:53,15.08853264,0.0001317,53.2176,110.469,95.682,264.4323,7.5306e-05,9.11e-06,0.0,0 STARLINK-4214,1 52877U 22062AZ  24216.87979063  .00000911  00000-0  75306-4 0  9991,2 52877  53.2176 110.4690 0001317  95.6820 264.4323 15.08853264118576,6917.84,95.437,540.616,538.794,0.0
52877.0,STARLINK-4214,PAYLOAD,2024-08-03 22:42:16,15.08854318,0.0001311,53.2174,110.1716,95.1325,264.9817,9.9729e-05,1.3e-05,0.0,0 STARLINK-4214,1 52877U 22062AZ  24216.94602965  .00001300  00000-0  99729-4 0  9991,2 52877  53.2174 110.1716 0001311  95.1325 264.9817 15.08854318118090,6917.837,95.437,540.609,538.795,0.0
52877.0,STARLINK-4214,PAYLOAD,2024-08-04 09:49:59,15.08852578,0.000108,53.2157,108.0867,75.8206,284.2906,0.00033851,5.105e-05,0.0,0 STARLINK-4214,1 52877U 22062AZ  24217.40971105  .00005105  00000-0  33851-3 0  9998,2 52877  53.2157 108.0867 0001080  75.8206 284.2906 15.08852578118168,6917.842,95.437,540.454,538.96,0.0
52877.0,STARLINK-4214,PAYLOAD,2024-08-04 22:33:03,15.08875399,0.0001552,53.2147,105.7049,86.9879,273.129,0.0007323,0.00011397,0.0,0 STARLINK-4214,1 52877U 22062AZ  24217.93961952  .00011397  00000-0  73230-3 0  9990,2 52877  53.2147 105.7049 0001552  86.9879 273.1290 15.08875399118244,6917.772,95.435,540.711,538.564,0.0
52877.0,STARLINK-4214,PAYLOAD,2024-08-05 01:43:48,15.08909768,0.000148,53.2157,105.1151,85.0968,275.0193,0.0016132,0.00025529,0.0,0 STARLINK-4214,1 52877U 22062AZ  24218.07209061  .00025529  00000-0  16132-2 0  9991,2 52877  53.2157 105.1151 0001480  85.0968 275.0193 15.08909768118759,6917.667,95.433,540.556,538.508,0.0
52877.0,STARLINK-4214,PAYLOAD,2024-08-05 22:23:51,15.08802835,0.0001463,53.2153,101.2489,119.9291,240.1846,0.00075532,0.00011741,0.0,0 STARLINK-4214,1 52877U 22062AZ  24218.93323206  .00011741  00000-0  75532-3 0  9995,2 52877  53.2153 101.2489 0001463 119.9291 240.1846 15.08802835118882,6917.994,95.44,540.871,538.847,0.0
52877.0,STARLINK-4214,PAYLOAD,2024-08-05 23:59:14,15.08808709,0.0001617,53.2147,100.9519,114.7497,245.3663,0.0015475,0.00024405,0.0,0 STARLINK-4214,1 52877U 22062AZ  24218.99947363  .00024405  00000-0  15475-2 0  9997,2 52877  53.2147 100.9519 0001617 114.7497 245.3663 15.08808709118898,6917.976,95.44,540.96,538.722,0.0
52877.0,STARLINK-4214,PAYLOAD,2024-08-06 22:14:39,15.08838167,0.0001607,53.2143,96.7888,114.1447,245.9713,0.0014531,0.00022913,0.0,0 STARLINK-4214,1 52877U 22062AZ  24219.92684685  .00022913  00000-0  14531-2 0  9990,2 52877  53.2143  96.7888 0001607 114.1447 245.9713 15.08838167118548,6917.886,95.438,540.863,538.639,0.0
52877.0,STARLINK-4214,PAYLOAD,2024-08-07 20:30:03,15.0884584,0.0002052,53.216,92.624,135.0173,225.0986,0.00046388,7.103e-05,0.0,0 STARLINK-4214,1 52877U 22062AZ  24220.85420472  .00007103  00000-0  46388-3 0  9996,2 52877  53.2160  92.6240 0002052 135.0173 225.0986 15.08845840119174,6917.863,95.437,541.147,538.308,0.0
52877.0,STARLINK-4214,PAYLOAD,2024-08-08 21:56:13,15.0885168,0.0001651,53.2167,87.8633,117.7577,242.3583,0.00032997,4.969e-05,0.0,0 STARLINK-4214,1 52877U 22062AZ  24221.91404325  .00004969  00000-0  32997-3 0  9991,2 52877  53.2167  87.8633 0001651 117.7577 242.3583 15.08851680119334,6917.845,95.437,540.852,538.568,0.0
52877.0,STARLINK-4214,PAYLOAD,2024-08-09 01:06:59,15.0885576,0.0001586,53.2161,87.269,116.0822,244.0334,0.00037403,5.672e-05,0.0,0 STARLINK-4214,1 52877U 22062AZ  24222.04652149  .00005672  00000-0  37403-3 0  9994,2 52877  53.2161  87.2690 0001586 116.0822 244.0334 15.08855760118860,6917.832,95.437,540.794,538.6,0.0
52877.0,STARLINK-4214,PAYLOAD,2024-08-09 20:11:37,15.08844772,0.0001477,53.2165,83.6952,110.5688,249.5462,0.0002346,3.448e-05,0.0,0 STARLINK-4214,1 52877U 22062AZ  24222.84140607  .00003448  00000-0  23460-3 0  9990,2 52877  53.2165  83.6952 0001477 110.5688 249.5462 15.08844772119474,6917.866,95.437,540.753,538.709,0.0
52877.0,STARLINK-4214,PAYLOAD,2024-08-10 21:37:47,15.08857534,0.000153,53.2173,78.9437,103.6308,256.4855,0.00052098,8.017e-05,0.0,0 STARLINK-4214,1 52877U 22062AZ  24223.90124220  .00008017  00000-0  52098-3 0  9997,2 52877  53.2173  78.9437 0001530 103.6308 256.4855 15.08857534119631,6917.827,95.436,540.75,538.633,0.0
52877.0,STARLINK-4214,PAYLOAD,2024-08-11 13:31:39,15.088517,0.0002304,53.2167,75.9738,76.8104,283.3145,0.00035765,5.41e-05,0.0,0 STARLINK-4214,1 52877U 22062AZ  24224.56364584  .00005410  00000-0  35765-3 0  9995,2 52877  53.2167  75.9738 0002304  76.8104 283.3145 15.08851700119731,6917.845,95.437,541.303,538.116,0.0
52877.0,STARLINK-4214,PAYLOAD,2024-08-11 21:28:34,15.08850104,0.0001556,53.2161,74.4897,80.538,279.5788,-0.0001204,-2.204e-05,0.0,0 STARLINK-4214,1 52877U 22062AZ  24224.89484271 -.00002204  00000-0 -12040-3 0  9998,2 52877  53.2161  74.4897 0001556  80.5380 279.5788 15.08850104119299,6917.85,95.437,540.791,538.638,0.0
